[Satellite]
VERSION=1.1
NAME=PISAT
NICKNAME=PISAT
TLE1=1 41784U 16059B   22342.35590993  .00000805  00000+0  16101-3 0  9995
TLE2=2 41784  97.8949  18.7632 0031125 341.9555  18.0541 14.64134333331135
STATUS=0
